FLOCK 4G-3              
1 62639U 25009AG  26194.16241930  .00006502  00000+0  22759-3 0  9990
2 62639  97.4028 276.0604 0003026 175.5584 184.5684 15.29846759 82876
FLOCK 4G-27             
1 62641U 25009AJ  26194.18191054  .00006017  00000+0  21124-3 0  9992
2 62641  97.3939 275.4306 0002326 173.8676 186.2593 15.29782368 82879
FLOCK 4G-29             
1 62642U 25009AK  26194.16732832  .00005485  00000+0  19246-3 0  9996
2 62642  97.4025 276.0254 0003223 171.9398 188.1894 15.29839451 82874
FLOCK 4G-22             
1 62645U 25009AN  26194.25108098  .00006431  00000+0  22583-3 0  9990
2 62645  97.4013 276.1434 0002744 166.4829 193.6485 15.29747072 82908
FLOCK 4G-25             
1 62646U 25009AP  26194.15972365  .00007836  00000+0  27254-3 0  9996
2 62646  97.4018 276.1302 0002252 166.6771 193.4529 15.29985367 82896
FLOCK 4G-23             
1 62647U 25009AQ  26193.75046595  .00034117  00000+0  10152-2 0  9999
2 62647  97.3926 275.4335 0003093 177.8892 182.2364 15.34642772 82848
FLOCK 4G-34             
1 62650U 25009AT  26194.16381815  .00006603  00000+0  23174-3 0  9994
2 62650  97.3967 275.6233 0002177 167.8874 192.2419 15.29751359 82889
FLOCK 4G-21             
1 62651U 25009AU  26194.47868459  .00021092  00000+0  66728-3 0  9994
2 62651  97.3996 276.9308 0003062 195.1808 164.9343 15.32793702 82989
FLOCK 4G-31             
1 62652U 25009AV  26193.67009629  .00006291  00000+0  22232-3 0  9998
2 62652  97.3971 275.1044 0001649 162.3844 197.7453 15.29548421 82805
FLOCK 4G-4              
1 62659U 25009BC  26193.77735849  .00028430  00000+0  91889-3 0  9999
2 62659  97.3953 275.0147 0004445 199.7728 160.3342 15.32041929140428
FLOCK 4G-6              
1 62660U 25009BD  26193.79073068  .00006951  00000+0  24233-3 0  9994
2 62660  97.3947 275.0759 0002664 210.8225 149.2859 15.29952265140418
FLOCK 4G-2              
1 62661U 25009BE  26193.78487832  .00007777  00000+0  26791-3 0  9990
2 62661  97.4014 275.7085 0003485 211.5166 148.5867 15.30300301140442
FLOCK 4G-5              
1 62663U 25009BG  26193.78070332  .00006484  00000+0  21985-3 0  9999
2 62663  97.4030 276.1016 0003232 189.2168 170.9014 15.30881733 82850
FLOCK 4G-1              
1 62666U 25009BK  26194.16191658  .00006587  00000+0  22828-3 0  9991
2 62666  97.4027 276.0632 0003815 206.1570 153.9479 15.30163691 82880
FLOCK 4G-14             
1 62667U 25009BL  26193.73452239  .00006543  00000+0  22999-3 0  9990
2 62667  97.4030 275.4355 0003909 202.9881 157.1185 15.29703778 82809
FLOCK 4G-10             
1 62670U 25009BP  26194.53051725  .00006540  00000+0  22908-3 0  9995
2 62670  97.3929 275.5280 0003504 219.8658 140.2325 15.29816353140568
FLOCK 4G-36             
1 62675U 25009BU  26194.45960372  .00006705  00000+0  23501-3 0  9991
2 62675  97.4018 276.0791 0004174 206.0906 154.0125 15.29787664 82911
FLOCK 4G-15             
1 62678U 25009BX  26194.53204597  .00006376  00000+0  22299-3 0  9990
2 62678  97.4022 276.2939 0004364 203.3162 156.7881 15.29878625140573
FLOCK 4G-30             
1 62679U 25009BY  26194.15357408  .00030035  00000+0  91686-3 0  9994
2 62679  97.3919 275.4304 0004122 202.4861 157.6202 15.33856701140521
FLOCK 4G-18             
1 62680U 25009BZ  26194.16564453  .00023481  00000+0  75793-3 0  9995
2 62680  97.4015 275.8404 0005968 218.1123 141.9697 15.32114865140510
FLOCK 4G-17             
1 62681U 25009CA  26194.03543889  .00007797  00000+0  27059-3 0  9996
2 62681  97.3927 275.2721 0003830 222.7150 137.3794 15.30057115140503
FLOCK 4G-33             
1 62685U 25009CE  26194.02471992  .00003908  00000+0  15579-3 0  9998
2 62685  97.3945 273.6030 0004456 223.1989 136.8900 15.25784276 82745
PELICAN-3               
1 65315U 25188A   26194.60766288  .00004728  00000+0  11550-3 0  9994
2 65315  97.1985 270.3653 0002038 114.1397 246.0063 15.41311054 49386
PELICAN-4               
1 65316U 25188B   26194.17134176  .00005009  00000+0  12508-3 0  9999
2 65316  97.1994 270.0881 0001364  72.2617 287.8779 15.40614656 49310
PELICAN-5               
1 66667U 25276B   26193.95429401  .00003504  00000+0  11494-3 0  9991
2 66667  97.4136 268.9208 0002288  13.7391 346.3913 15.32291302 34466
PELICAN-6               
1 66703U 25276AP  26193.75665506  .00025740  00000+0  85152-3 0  9996
2 66703  97.3675 268.7593 0001794  48.9970 311.1426 15.31319362 34446
FLOCK 4H-1              
1 66704U 25276AQ  26194.63268300  .00003842  00000+0  17720-3 0  9991
2 66704  97.4175 267.9035 0001799 176.0453 184.0797 15.20840251 34452
FLOCK 4H-2              
1 66705U 25276AR  26194.14617360  .00004480  00000+0  20451-3 0  9996
2 66705  97.4171 267.4721 0001329 157.7274 202.4020 15.21108414 34387
FLOCK 4H-3              
1 66706U 25276AS  26194.00337617  .00004240  00000+0  19870-3 0  9993
2 66706  97.4241 267.2571 0002398 261.5160  98.5804 15.20228134 34343
FLOCK 4H-4              
1 66707U 25276AT  26194.17080777  .00003840  00000+0  18135-3 0  9992
2 66707  97.4223 267.2901 0003050 265.6509  94.4377 15.20019315 34360
FLOCK 4H-5              
1 66708U 25276AU  26194.16444849  .00003610  00000+0  16648-3 0  9998
2 66708  97.4174 267.4634 0001222 135.2061 224.9273 15.20887811 34386
FLOCK 4H-6              
1 66709U 25276AV  26193.74937716  .00004320  00000+0  20032-3 0  9993
2 66709  97.4225 267.0976 0002218 214.0805 146.0289 15.20586674 34314
FLOCK 4H-7              
1 66710U 25276AW  26194.45477649  .00003742  00000+0  17506-3 0  9997
2 66710  97.4184 267.5511 0000751 318.4866  41.6312 15.20365882 34410
FLOCK 4H-8              
1 66711U 25276AX  26194.64322568  .00003802  00000+0  17723-3 0  9996
2 66711  97.4224 267.8853 0001867 281.1504  78.9521 15.20475264 34446
FLOCK 4H-9              
1 66712U 25276AY  26193.73616334  .00004222  00000+0  19481-3 0  9993
2 66712  97.4213 267.0859 0002235 224.9821 135.1234 15.20767374 34319
FLOCK 4H-10             
1 66713U 25276AZ  26194.15505281  .00004574  00000+0  21460-3 0  9999
2 66713  97.4189 267.2107 0002868 266.2366  93.8541 15.20147741 34361
FLOCK 4H-11             
1 66714U 25276BA  26194.51280523  .00007762  00000+0  33006-3 0  9990
2 66714  97.4197 268.1477 0001353 255.8312 104.2774 15.23300120 34454
FLOCK 4H-12             
1 66715U 25276BB  26194.64441493  .00003925  00000+0  18118-3 0  9994
2 66715  97.4188 267.9171 0001702 185.6631 174.4585 15.20802954 34767
FLOCK 4H-13             
1 66716U 25276BC  26194.15457971  .00004817  00000+0  22097-3 0  9991
2 66716  97.4218 267.6071 0001814 144.2920 215.8437 15.20900966 34380
FLOCK 4H-14             
1 66717U 25276BD  26194.64182038  .00003791  00000+0  17233-3 0  9991
2 66717  97.4204 268.1330 0001698 142.3926 217.7429 15.21352422 33712
FLOCK 4H-15             
1 66718U 25276BE  26194.18864470  .00003627  00000+0  17225-3 0  9997
2 66718  97.4218 267.2491 0002688 286.9887  73.1053 15.19867106 34363
FLOCK 4H-16             
1 66719U 25276BF  26194.16170803  .00003996  00000+0  18797-3 0  9990
2 66719  97.4234 267.3317 0002718 268.1140  91.9784 15.20134287 34366
FLOCK 4H-18             
1 66721U 25276BH  26193.77282843  .00004148  00000+0  19536-3 0  9999
2 66721  97.4176 266.7646 0002297 307.3848  52.7178 15.20073104 34301
FLOCK 4H-19             
1 66722U 25276BJ  26193.51089116  .00003274  00000+0  14962-3 0  9997
2 66722  97.4177 266.9648 0002165 154.1760 205.9584 15.21266946 33583
FLOCK 4H-20             
1 66723U 25276BK  26193.77639696  .00004128  00000+0  18693-3 0  9994
2 66723  97.4213 267.3305 0002587 177.2483 182.8767 15.21427583 33588
FLOCK 4H-21             
1 66724U 25276BL  26193.74130818  .00003908  00000+0  17928-3 0  9999
2 66724  97.4178 267.1228 0002449 176.0754 184.0501 15.21013868 33572
FLOCK 4H-22             
1 66725U 25276BM  26194.64057344  .00004121  00000+0  19165-3 0  9995
2 66725  97.4169 267.7204 0001088 311.1723  48.9419 15.20509219 34441
FLOCK 4H-23             
1 66726U 25276BN  26194.43042359  .00003980  00000+0  18765-3 0  9990
2 66726  97.4240 267.5975 0002867 254.1357 105.9562 15.20056383 34408
FLOCK 4H-24             
1 66727U 25276BP  26193.75709286  .00004776  00000+0  22384-3 0  9990
2 66727  97.4237 266.9635 0002387 282.7277  77.3691 15.20162058 34307
FLOCK 4H-25             
1 66728U 25276BQ  26194.15439716  .00004405  00000+0  20217-3 0  9996
2 66728  97.4189 267.5208 0001792 127.8082 232.3316 15.20930394 33660
FLOCK 4H-26             
1 66729U 25276BR  26194.64595585  .00003651  00000+0  17323-3 0  9994
2 66729  97.4190 267.6222 0003201 274.3373  85.7496 15.19890100 34431
FLOCK 4H-27             
1 66730U 25276BS  26194.64536848  .00003733  00000+0  17268-3 0  9992
2 66730  97.4167 267.8584 0001463 126.3112 233.8259 15.20757616 34456
FLOCK 4H-29             
1 66732U 25276BU  26193.76983418  .00004351  00000+0  20505-3 0  9990
2 66732  97.4170 266.7432 0001728 301.7488  58.3579 15.20024779 34307
FLOCK 4H-30             
1 66733U 25276BV  26194.02523212  .00004521  00000+0  21213-3 0  9999
2 66733  97.4229 267.1995 0002605 277.8712  82.2228 15.20150093 34340
FLOCK 4H-31             
1 66734U 25276BW  26194.44089816  .00003638  00000+0  17243-3 0  9999
2 66734  97.4167 267.3703 0002146 290.2865  69.8139 15.19928404 34405
FLOCK 4H-32             
1 66735U 25276BX  26194.16562597  .00003867  00000+0  18249-3 0  9992
2 66735  97.4222 267.2942 0003006 273.1555  86.9336 15.20045599 34365
FLOCK 4H-33             
1 66736U 25276BY  26194.45420690  .00003463  00000+0  15850-3 0  9999
2 66736  97.4219 267.9684 0002575 166.2441 193.8865 15.21176090 34433
FLOCK 4H-34             
1 66737U 25276BZ  26194.17758649  .00003973  00000+0  18324-3 0  9992
2 66737  97.4236 267.6194 0002346 175.2770 184.8488 15.20822299 33637
FLOCK 4H-35             
1 66738U 25276CA  26193.75873903  .00004548  00000+0  20860-3 0  9994
2 66738  97.4196 267.1453 0002306 156.8141 203.3199 15.20936393 33614
FLOCK 4H-36             
1 66739U 25276CB  26194.38911556  .00003656  00000+0  16946-3 0  9991
2 66739  97.4243 267.8209 0002273 189.4100 170.7093 15.20703793 34419
